[{"OBJECT_NAME":"STARLINK-30507","OBJECT_ID":"2023-151U","EPOCH":"2026-03-09T03:02:09.742560","MEAN_MOTION":15.02538442,"ECCENTRICITY":0.00010305,"INCLINATION":43.0052,"RA_OF_ASC_NODE":355.017,"ARG_OF_PERICENTER":262.7137,"MEAN_ANOMALY":97.3588,"EPHEMERIS_TYPE":0,"CLASSIFICATION_TYPE":"U","NORAD_CAT_ID":57982,"ELEMENT_SET_NO":999,"REV_AT_EPOCH":13549,"BSTAR":2.891353e-6,"MEAN_MOTION_DOT":-1.65e-6,"MEAN_MOTION_DDOT":0},{"OBJECT_NAME":"OBJECT C","OBJECT_ID":"2025-292C","EPOCH":"2026-03-09T21:40:07.439232","MEAN_MOTION":15.0561637,"ECCENTRICITY":0.00142936,"INCLINATION":97.6364,"RA_OF_ASC_NODE":145.6037,"ARG_OF_PERICENTER":339.8589,"MEAN_ANOMALY":20.2072,"EPHEMERIS_TYPE":0,"CLASSIFICATION_TYPE":"U","NORAD_CAT_ID":66995,"ELEMENT_SET_NO":999,"REV_AT_EPOCH":1350,"BSTAR":0.00047642755,"MEAN_MOTION_DOT":6.828e-5,"MEAN_MOTION_DDOT":0}]
